SILVERSAT               
1 66909U 98067XV  26039.69621556  .00112035  00000+0  11970-2 0  9991
2 66909  51.6268 212.3016 0002455 240.1413 119.9338 15.63047700 10644
ISS OBJECT XW           
1 66910U 98067XW  26039.71161299  .00085719  00000+0  97309-3 0  9998
2 66910  51.6259 212.4001 0001021 268.1943  91.8934 15.61610309 10646
ISS OBJECT XX           
1 66911U 98067XX  26039.73029843  .00122432  00000+0  12434-2 0  9998
2 66911  51.6250 211.7740 0002586 282.2358  77.8347 15.64294985 10647
ISS OBJECT XY           
1 66912U 98067XY  26039.71019914  .00063111  00000+0  80332-3 0  9996
2 66912  51.6281 213.1466 0000964 166.3031 193.7988 15.58741559 10625
ISS OBJECT XZ           
1 67683U 98067XZ  26039.98412196  .00038732  00000+0  69387-3 0  9998
2 67683  51.6306 214.2226 0011033  93.8792 266.3458 15.49503727   331
GXIBA-1                 
1 67684U 98067YA  26039.91857321  .00062971  00000+0  11005-2 0  9990
2 67684  51.6305 214.5360 0012996  89.4198 270.8280 15.49966187   328
LEOPARD                 
1 67685U 98067YB  26039.98387436  .00042642  00000+0  75949-3 0  9994
2 67685  51.6307 214.2213 0012974  89.4603 270.7873 15.49599280   336
ISS OBJECT YC           
1 67686U 98067YC  26040.17718546  .00054398  00000+0  96363-3 0  9992
2 67686  51.6310 213.2632 0007855  67.3700 292.8119 15.49703500   363
CORAL                   
1 67687U 98067YD  26040.04846768  .00035813  00000+0  64179-3 0  9998
2 67687  51.6310 213.9027 0007943  68.6513 291.5322 15.49563290   264
ISS OBJECT YE           
1 67688U 98067YE  26039.91926608  .00042993  00000+0  76589-3 0  9990
2 67688  51.6313 214.5398 0007824  66.8805 293.3008 15.49647851   243
